NORAD_CAT_ID,OBJECT_NAME,OBJECT_TYPE,EPOCH,MEAN_MOTION,ECCENTRICITY,INCLINATION,RA_OF_ASC_NODE,ARG_OF_PERICENTER,MEAN_ANOMALY,BSTAR,MEAN_MOTION_DOT,MEAN_MOTION_DDOT,TLE_LINE0,TLE_LINE1,TLE_LINE2,SEMIMAJOR_AXIS,PERIOD,APOGEE,PERIGEE,DECAYED
49443.0,STARLINK-3136,PAYLOAD,2023-06-12 01:11:43,15.08845515,0.0001475,53.2172,25.6563,87.9087,272.2074,0.0002528,3.738e-05,0.0,0 STARLINK-3136,1 49443U 21104AM  23163.04980469  .00003738  00000-0  25280-3 0  9998,2 49443  53.2172  25.6563 0001475  87.9087 272.2074 15.08845515 88775,6917.864,95.437,540.749,538.708,0.0
49443.0,STARLINK-3136,PAYLOAD,2023-06-12 07:33:15,15.08845742,0.0001415,53.2179,24.4655,82.9158,277.1995,0.00018437,2.648e-05,0.0,0 STARLINK-3136,1 49443U 21104AM  23163.31476408  .00002648  00000-0  18437-3 0  9996,2 49443  53.2179  24.4655 0001415  82.9158 277.1995 15.08845742 87743,6917.863,95.437,540.707,538.749,0.0
49443.0,STARLINK-3136,PAYLOAD,2023-06-12 17:05:34,15.08837067,0.0001403,53.2178,22.6813,86.1393,273.9759,-0.00011398,-2.101e-05,0.0,0 STARLINK-3136,1 49443U 21104AM  23163.71220579 -.00002101  00000-0 -11398-3 0  9991,2 49443  53.2178  22.6813 0001403  86.1393 273.9759 15.08837067 88870,6917.889,95.438,540.725,538.784,0.0
49443.0,STARLINK-3136,PAYLOAD,2023-06-12 21:51:43,15.08840303,0.0001051,53.2176,21.7923,95.4983,264.6129,-2.8427e-05,-7.4e-06,0.0,0 STARLINK-3136,1 49443U 21104AM  23163.91092399 -.00000740  00000-0 -28427-4 0  9999,2 49443  53.2176  21.7923 0001051  95.4983 264.6129 15.08840303 87837,6917.879,95.438,540.472,539.017,0.0
49443.0,STARLINK-3136,PAYLOAD,2023-06-12 23:27:06,15.08842456,0.0001316,53.2176,21.4938,87.677,272.4373,-2.6897e-06,-3.31e-06,0.0,0 STARLINK-3136,1 49443U 21104AM  23163.97716342 -.00000331  00000-0 -26897-5 0  9992,2 49443  53.2176  21.4938 0001316  87.6770 272.4373 15.08842456 88910,6917.873,95.437,540.648,538.827,0.0
49443.0,STARLINK-3136,PAYLOAD,2023-06-13 16:56:21,15.08839665,0.0001101,53.2163,18.2248,93.9491,266.1627,3.0644e-05,2e-06,0.0,0 STARLINK-3136,1 49443U 21104AM  23164.70580594  .00000200  00000-0  30644-4 0  9999,2 49443  53.2163  18.2248 0001101  93.9491 266.1627 15.08839665 87959,6917.881,95.438,540.508,538.985,0.0
49443.0,STARLINK-3136,PAYLOAD,2023-06-14 00:53:17,15.08846611,0.0001076,53.2161,16.7379,94.2128,265.8987,0.0001356,1.871e-05,0.0,0 STARLINK-3136,1 49443U 21104AM  23165.03700240  .00001871  00000-0  13560-3 0  9990,2 49443  53.2161  16.7379 0001076  94.2128 265.8987 15.08846611 89076,6917.86,95.437,540.47,538.981,0.0
49443.0,STARLINK-3136,PAYLOAD,2023-06-14 13:36:22,15.08839359,0.0001049,53.2164,14.3595,100.9989,259.1121,0.00011667,1.569e-05,0.0,0 STARLINK-3136,1 49443U 21104AM  23165.56692619  .00001569  00000-0  11667-3 0  9998,2 49443  53.2164  14.3595 0001049 100.9989 259.1121 15.08839359 88080,6917.882,95.438,540.473,539.022,0.0
49443.0,STARLINK-3136,PAYLOAD,2023-06-14 16:47:09,15.08834941,0.0001149,53.217,13.7626,93.2476,266.8647,7.4254e-05,8.94e-06,0.0,0 STARLINK-3136,1 49443U 21104AM  23165.69941000  .00000894  00000-0  74254-4 0  9995,2 49443  53.2170  13.7626 0001149  93.2476 266.8647 15.08834941 89172,6917.896,95.438,540.556,538.966,0.0
49443.0,STARLINK-3136,PAYLOAD,2023-06-14 19:57:55,15.08836537,0.0001122,53.2168,13.1685,94.3122,265.7998,9.4321e-05,1.213e-05,0.0,0 STARLINK-3136,1 49443U 21104AM  23165.83188961  .00001213  00000-0  94321-4 0  9993,2 49443  53.2168  13.1685 0001122  94.3122 265.7998 15.08836537 88123,6917.891,95.438,540.532,538.98,0.0
49443.0,STARLINK-3136,PAYLOAD,2023-06-15 02:19:27,15.08844549,0.0001165,53.2171,11.9778,94.9582,265.1543,0.00015674,2.208e-05,0.0,0 STARLINK-3136,1 49443U 21104AM  23166.09684592  .00002208  00000-0  15674-3 0  9991,2 49443  53.2171  11.9778 0001165  94.9582 265.1543 15.08844549 89234,6917.866,95.437,540.537,538.926,0.0
49443.0,STARLINK-3136,PAYLOAD,2023-06-15 13:27:09,15.0884059,0.0001231,53.2168,9.8959,103.8264,256.2865,8.1251e-05,1.006e-05,0.0,0 STARLINK-3136,1 49443U 21104AM  23166.56052917  .00001006  00000-0  81251-4 0  9993,2 49443  53.2168   9.8959 0001231 103.8264 256.2865 15.08840590 88237,6917.879,95.438,540.595,538.892,0.0
49443.0,STARLINK-3136,PAYLOAD,2023-06-15 19:48:42,15.08844287,0.0001239,53.2172,8.707,96.6152,263.4981,0.00012062,1.633e-05,0.0,0 STARLINK-3136,1 49443U 21104AM  23166.82548774  .00001633  00000-0  12062-3 0  9992,2 49443  53.2172   8.7070 0001239  96.6152 263.4981 15.08844287 88277,6917.867,95.437,540.589,538.875,0.0
49443.0,STARLINK-3136,PAYLOAD,2023-06-16 06:56:23,15.08849579,0.0001206,53.2172,6.6255,99.12,260.9928,0.00018155,2.603e-05,0.0,0 STARLINK-3136,1 49443U 21104AM  23167.28916476  .00002603  00000-0  18155-3 0  9998,2 49443  53.2172   6.6255 0001206  99.1200 260.9928 15.08849579 89414,6917.851,95.437,540.55,538.882,0.0
49443.0,STARLINK-3136,PAYLOAD,2023-06-16 19:39:28,15.08857606,0.0001254,53.2169,4.2458,100.3391,259.7743,0.00033554,5.059e-05,0.0,0 STARLINK-3136,1 49443U 21104AM  23167.81907887  .00005059  00000-0  33554-3 0  9991,2 49443  53.2169   4.2458 0001254 100.3391 259.7743 15.08857606 88429,6917.827,95.436,540.559,538.824,0.0
49443.0,STARLINK-3136,PAYLOAD,2023-06-16 22:50:14,15.08862162,0.0001219,53.2171,3.6518,96.9057,263.2074,0.00045637,6.987e-05,0.0,0 STARLINK-3136,1 49443U 21104AM  23167.95155754  .00006987  00000-0  45637-3 0  9990,2 49443  53.2171   3.6518 0001219  96.9057 263.2074 15.08862162 89513,6917.813,95.436,540.521,538.834,0.0
49443.0,STARLINK-3136,PAYLOAD,2023-06-17 14:44:07,15.08828942,0.0001186,53.2166,0.6782,93.9267,266.186,-0.00013373,-2.415e-05,0.0,0 STARLINK-3136,1 49443U 21104AM  23168.61397271 -.00002415  00000-0 -13373-3 0  9992,2 49443  53.2166   0.6782 0001186  93.9267 266.1860 15.08828942 89614,6917.914,95.438,540.6,538.959,0.0
49443.0,STARLINK-3136,PAYLOAD,2023-06-17 22:41:03,15.08824987,0.0001131,53.217,359.1912,93.7236,266.3886,-0.00017213,-3.025e-05,0.0,0 STARLINK-3136,1 49443U 21104AM  23168.94517606 -.00003025  00000-0 -17213-3 0  9999,2 49443  53.2170 359.1912 0001131  93.7236 266.3886 15.08824987 88591,6917.926,95.439,540.574,539.009,0.0
49443.0,STARLINK-3136,PAYLOAD,2023-06-18 19:21:04,15.08841375,0.0001013,53.2168,355.3258,63.9541,296.1555,0.00067125,0.00010412,0.0,0 STARLINK-3136,1 49443U 21104AM  23169.80630021  .00010412  00000-0  67125-3 0  9995,2 49443  53.2168 355.3258 0001013  63.9541 296.1555 15.08841375 89793,6917.876,95.437,540.442,539.04,0.0
49443.0,STARLINK-3136,PAYLOAD,2023-06-19 11:14:55,15.0885347,0.0001083,53.2166,352.3526,65.2467,294.8638,0.0006003,9.282e-05,0.0,0 STARLINK-3136,1 49443U 21104AM  23170.46869684  .00009282  00000-0  60030-3 0  9999,2 49443  53.2166 352.3526 0001083  65.2467 294.8638 15.08853470 88824,6917.839,95.437,540.453,538.955,0.0
49443.0,STARLINK-3136,PAYLOAD,2023-06-19 19:11:50,15.08862961,0.0001045,53.2168,350.8659,65.3007,294.8094,0.00066289,0.00010284,0.0,0 STARLINK-3136,1 49443U 21104AM  23170.79989175  .00010284  00000-0  66289-3 0  9999,2 49443  53.2168 350.8659 0001045  65.3007 294.8094 15.08862961 88871,6917.81,95.436,540.398,538.952,0.0
49443.0,STARLINK-3136,PAYLOAD,2023-06-20 04:44:09,15.08854854,6.05e-05,53.2166,349.0828,79.9303,280.1757,0.00028895,4.316e-05,0.0,0 STARLINK-3136,1 49443U 21104AM  23171.19732878  .00004316  00000-0  28895-3 0  9990,2 49443  53.2166 349.0828 0000605  79.9303 280.1757 15.08854854 90002,6917.835,95.437,540.119,539.281,0.0
49443.0,STARLINK-3136,PAYLOAD,2023-06-20 12:41:05,15.08843411,0.0001354,53.2168,347.5949,80.0295,280.085,-6.679e-05,-1.351e-05,0.0,0 STARLINK-3136,1 49443U 21104AM  23171.52853270 -.00001351  00000-0 -66790-4 0  9992,2 49443  53.2168 347.5949 0001354  80.0295 280.0850 15.08843411 88980,6917.87,95.437,540.672,538.798,0.0
49443.0,STARLINK-3136,PAYLOAD,2023-06-20 17:27:15,15.08827205,0.0001124,53.2164,346.7047,83.6553,276.4567,0.00064433,9.978e-05,0.0,0 STARLINK-3136,1 49443U 21104AM  23171.72726213  .00009978  00000-0  64433-3 0  9992,2 49443  53.2164 346.7047 0001124  83.6553 276.4567 15.08827205 90088,6917.919,95.438,540.562,539.007,0.0
49443.0,STARLINK-3136,PAYLOAD,2023-06-20 20:38:00,15.08847923,9.82e-05,53.217,346.1086,79.1107,280.9996,5.5527e-05,5.96e-06,0.0,0 STARLINK-3136,1 49443U 21104AM  23171.85973059  .00000596  00000-0  55527-4 0  9990,2 49443  53.2170 346.1086 0000982  79.1107 280.9996 15.08847923 89036,6917.856,95.437,540.401,539.042,0.0
49443.0,STARLINK-3136,PAYLOAD,2023-06-21 10:56:29,15.08839973,9.44e-05,53.2169,343.4325,85.9393,274.1707,-4.2275e-05,-9.6e-06,0.0,0 STARLINK-3136,1 49443U 21104AM  23172.45589368 -.00000960  00000-0 -42275-4 0  9996,2 49443  53.2169 343.4325 0000944  85.9393 274.1707 15.08839973 90190,6917.88,95.438,540.399,539.092,0.0
49443.0,STARLINK-3136,PAYLOAD,2023-06-21 18:53:24,15.08846582,9.91e-05,53.2172,341.9447,80.5944,279.516,3.5979e-05,2.85e-06,0.0,0 STARLINK-3136,1 49443U 21104AM  23172.78709080  .00000285  00000-0  35979-4 0  9998,2 49443  53.2172 341.9447 0000991  80.5944 279.5160 15.08846582 89179,6917.86,95.437,540.411,539.04,0.0
49443.0,STARLINK-3136,PAYLOAD,2023-06-22 18:44:12,15.08842762,9.73e-05,53.2175,337.4836,88.7684,271.342,0.00012304,1.671e-05,0.0,0 STARLINK-3136,1 49443U 21104AM  23173.78069503  .00001671  00000-0  12304-3 0  9994,2 49443  53.2175 337.4836 0000973  88.7684 271.3420 15.08842762 90396,6917.872,95.437,540.41,539.064,0.0
49443.0,STARLINK-3136,PAYLOAD,2023-06-23 10:38:03,15.08835282,9.9e-05,53.2177,334.5087,91.2898,268.8208,-1.5014e-05,-5.27e-06,0.0,0 STARLINK-3136,1 49443U 21104AM  23174.44310169 -.00000527  00000-0 -15014-4 0  9998,2 49443  53.2177 334.5087 0000990  91.2898 268.8208 15.08835282 90494,6917.895,95.438,540.445,539.075,0.0
49443.0,STARLINK-3136,PAYLOAD,2023-06-24 16:50:23,15.08842114,0.0001131,53.2177,328.8618,87.7984,272.3138,0.00020487,2.974e-05,0.0,0 STARLINK-3136,1 49443U 21104AM  23175.70166317  .00002974  00000-0  20487-3 0  9997,2 49443  53.2177 328.8618 0001131  87.7984 272.3138 15.08842114 90689,6917.874,95.437,540.521,538.957,0.0
